SAUDISAT 1C             
1 27607U 02058C   17356.91542983  .00000035  00000-0  25699-4 0  9993
2 27607  64.5559 268.8057 0043644  13.7949 346.4335 14.75404922806828
SAUDISAT 2              
1 28371U 04025F   17357.43874179  .00000012  00000-0  13252-4 0  9998
2 28371  98.1622 307.0294 0027014 112.8649 247.5405 14.54281630715342
SAUDISAT 3              
1 31118U 07012B   17357.42385313  .00000045  00000-0  15436-4 0  9998
2 31118  97.7472 340.9508 0016297  27.7448 332.4623 14.69083284572796
PISAT                   
1 41784U 16059B   17357.16928260  .00000104  00000-0  29554-4 0  9996
2 41784  98.1441  56.6254 0030767 287.8152  71.9694 14.63290041 66218
FLYING LAPTOP           
1 42831U 17042G   17356.83441175  .00000249  00000-0  30759-4 0  9990
2 42831  97.6083 260.6993 0015592  68.3511 291.9367 14.90770283 24053
